#aV2006  6 26  0  0   .00000000      96 DD+AD WGS84 FIT  NGA
## 1381  86400.00000000   900.00000000 53912  .0000000000000
+   29     1  2  3  4  5  6  7  8  9 10 11 13 14 15 16 17 18
+         19 20 21 22 23 24 25 26 27 28 29 30  0  0  0  0  0
+          0  0  0  0  0  0  0  0  0  0  0  0  0  0  0  0  0
+          0  0  0  0  0  0  0  0  0  0  0  0  0  0  0  0  0
+          0  0  0  0  0  0  0  0  0  0  0  0  0  0  0  0  0
++         0  0  0  0  0  0  0  0  0  0  0  0  0  0  0  0  0
++         0  0  0  0  0  0  0  0  0  0  0  0  0  0  0  0  0
++         0  0  0  0  0  0  0  0  0  0  0  0  0  0  0  0  0
++         0  0  0  0  0  0  0  0  0  0  0  0  0  0  0  0  0
++         0  0  0  0  0  0  0  0  0  0  0  0  0  0  0  0  0
%c cc cc ccc ccc cccc cccc cccc cccc ccccc ccccc ccccc ccccc
%c cc cc ccc ccc cccc cccc cccc cccc ccccc ccccc ccccc ccccc
%f  0.0000000  0.000000000  0.00000000000  0.000000000000000
%f  0.0000000  0.000000000  0.00000000000  0.000000000000000
%i    0    0    0    0      0      0      0      0         0
%i    0    0    0    0      0      0      0      0         0
/*      NGA, ST. LOUIS,MO.                                  
/*   EPHEMERIS COMPUTED FROM  3 DAYS OF DATA                
/* CCCCCCCCCCCCCCCCCCCCCCCCCCCCCCCCCCCCCCCCCCCCCCCCCCCCCCCCC
/* CCCCCCCCCCCCCCCCCCCCCCCCCCCCCCCCCCCCCCCCCCCCCCCCCCCCCCCCC
*  2006  6 26  3  0   .00000000                                                 
P  1  17146.607134   7984.990375 -18475.259788     62.103616                    
V  1   9029.176445  22022.805553  17662.257027       .021718                    
P  2 -18503.308916   3982.025832 -18801.914567      8.136525                    
V  2  11267.461688 -20640.386269 -15886.398954       .032843                    
P  3  18168.231203   1569.081801  19240.544670     50.861150                    
V  3  12069.505670  21746.278332 -12746.531125       .855733                    
P  4 -13419.906469  -7750.397814 -21614.559767    261.807681                    
V  4  15250.816316 -22751.976432   -967.469977       .080713                    
P  5 -14701.248533  13469.860123 -17665.708799    164.329712                    
V  5 -22232.435247  -1294.928116  17885.649770       .394243                    
P  6   4690.901960  23946.100143 -10206.609285    575.112830                    
V  6  -9404.951814 -10010.159607 -27351.954957       .103857                    
P  7  18143.743547  17082.259724   9358.345428    541.613393                    
V  7   3017.311797  11566.666263 -28111.199873      -.000050                    
P  8  -6361.812613 -15237.068018  20562.902785    -70.341052                    
V  8  16103.607679 -21077.190669 -10959.020947      -.014070                    
P  9 -15255.817290  21193.743057   3371.405326     25.655327                    
V  9    -95.322852  -5864.238379  31569.135771       .013964                    
P 10 -26327.486296   1133.099669   4359.764334     85.613577                    
V 10  -5441.845347  -2507.715067 -31201.509534       .005379                    
P 11  12854.330028 -22898.053568   2897.593051    335.658499                    
V 11   2962.649900   5533.643191  30136.227913       .022912                    
P 13  -4239.585117 -24204.288041 -10247.634613     72.326162                    
V 13   6965.652144  10869.647707 -28761.605649       .029034                    
P 14  15401.436002  20491.012401  -7002.948990    -11.190081                    
V 14   2314.387704   8838.404051  30612.251155       .007496                    
P 15   6642.058876  15192.312047  20506.373617    634.736202                    
V 15 -16873.141864  20460.359195 -10031.150802       .061258                    
P 16  26543.745117   1941.366312   -597.313055     52.180376                    
V 16  -1012.154526   2626.520263 -31699.698594       .026536                    
P 17 -15400.014447 -20874.889070  -5948.878849     99.528400                    
V 17  -1064.593675  -7916.043165  30459.238341       .008572                    
P 18   5252.503662  15415.650039  21138.313283   -240.744750                    
V 18 -26494.741212  -1858.954297   7668.450312      -.013956                    
P 19  12244.161345  -9799.981951  21539.534578     -3.208611                    
V 19  11345.790893  24625.566216   4831.228424       .022260                    
P 20  11768.225459 -13456.212809 -19730.150485    -24.941778                    
V 20  24803.341560   2180.273290  13396.609010       .004326                    
P 21   -390.046683  20940.039154  16075.578698     37.883697                    
V 21 -13856.366656  15402.171336 -21020.988269       .023375                    
P 22  18690.326830  12206.723188  14557.165354    110.259187                    
V 22 -18354.926027    359.411288  23494.895367       .035133                    
P 23   4899.005337 -18361.500183 -18582.693249    139.091972                    
V 23  12029.550960  20163.406198 -17002.609264      -.005575                    
P 24  -5374.466950 -16388.830490 -19893.528383     16.021352                    
V 24  16129.445277 -20243.989678  12440.526386       .028579                    
P 25  16093.486545    865.710283 -20740.195167     21.442102                    
V 25 -11888.740796  24526.824716  -7914.305159       .754455                    
P 26 -12900.974368   6363.751171  21923.968837   -159.063676                    
V 26 -12710.647957 -25777.562394    565.051596      -.126118                    
P 27      2.341921 -21957.524325  15312.581399     55.102315                    
V 27  10882.984504 -15128.596129 -22914.977324       .017941                    
P 28 -15690.314550 -13215.927701  17346.767279     24.462512                    
V 28  21381.140931    -22.227593  19314.711092      -.009281                    
P 29 -14720.124762   3391.238158  22104.828212    623.525594                    
V 29 -12617.119813 -24328.169973  -4442.719939       .038717                    
P 30  -1367.547150  15668.210235 -21683.115556      1.809293                    
V 30 -26926.779716   -524.074924   1455.700078       .010574                    
EOF
